{
  "norad_id": 62091,
  "name": "STARLINK-11389 [DTC]",
  "history": [
    {
      "epoch": "2026-04-15T06:20:03.965856Z",
      "apogee_km": 357.23697559081666,
      "perigee_km": 355.41193653622304,
      "latitude_deg": 3.06317349789176e-05,
      "longitude_deg": -115.6762943353916,
      "height_km": 356.3883716164891,
      "semi_major_axis_km": 6734.461456063519,
      "eccentricity": 0.0001355,
      "inclination_deg": 43.0013,
      "raan_deg": 182.7687,
      "arg_perigee_deg": 251.3726,
      "mean_anomaly_deg": 108.6995,
      "mean_motion_rev_day": 15.70899692
    },
    {
      "epoch": "2026-04-16T15:54:22.625568Z",
      "apogee_km": 358.1708815803313,
      "perigee_km": 354.4548121548287,
      "latitude_deg": 2.7596950131022973e-05,
      "longitude_deg": 90.93520946803436,
      "height_km": 356.0432423130138,
      "semi_major_axis_km": 6734.449846867579,
      "eccentricity": 0.0002759,
      "inclination_deg": 43.004,
      "raan_deg": 174.3367,
      "arg_perigee_deg": 271.3418,
      "mean_anomaly_deg": 88.7134,
      "mean_motion_rev_day": 15.70903754
    },
    {
      "epoch": "2026-04-17T20:54:01.881504Z",
      "apogee_km": 356.773686595825,
      "perigee_km": 356.0534937557104,
      "latitude_deg": 4.258287099185906e-06,
      "longitude_deg": 7.549568797117393,
      "height_km": 355.8293258519372,
      "semi_major_axis_km": 6734.550590175767,
      "eccentricity": 5.347e-05,
      "inclination_deg": 43.0009,
      "raan_deg": 167.0554,
      "arg_perigee_deg": 350.9879,
      "mean_anomaly_deg": 9.0979,
      "mean_motion_rev_day": 15.70868505
    },
    {
      "epoch": "2026-04-18T10:38:03.417504Z",
      "apogee_km": 356.86919824198776,
      "perigee_km": 355.69215672031714,
      "latitude_deg": 2.5935964614465793e-06,
      "longitude_deg": 157.52914168632336,
      "height_km": 356.1818161736949,
      "semi_major_axis_km": 6734.417677481152,
      "eccentricity": 8.739e-05,
      "inclination_deg": 43.0015,
      "raan_deg": 163.6054,
      "arg_perigee_deg": 257.336,
      "mean_anomaly_deg": 102.741,
      "mean_motion_rev_day": 15.7091501
    },
    {
      "epoch": "2026-04-19T20:12:23.806080Z",
      "apogee_km": 356.58399389973783,
      "perigee_km": 356.152985548395,
      "latitude_deg": -2.1272981988211157e-05,
      "longitude_deg": 4.134096164817245,
      "height_km": 356.2986151065233,
      "semi_major_axis_km": 6734.505489724066,
      "eccentricity": 3.2e-05,
      "inclination_deg": 42.9989,
      "raan_deg": 155.1741,
      "arg_perigee_deg": 137.6817,
      "mean_anomaly_deg": 222.4075,
      "mean_motion_rev_day": 15.70884285
    },
    {
      "epoch": "2026-04-20T09:56:25.496736Z",
      "apogee_km": 358.1416480284415,
      "perigee_km": 354.8007435946629,
      "latitude_deg": -9.656371661498371e-06,
      "longitude_deg": 154.1121357926475,
      "height_km": 356.11894570087145,
      "semi_major_axis_km": 6734.608195811552,
      "eccentricity": 0.00024804,
      "inclination_deg": 43.0001,
      "raan_deg": 151.7232,
      "arg_perigee_deg": 274.3101,
      "mean_anomaly_deg": 85.7483,
      "mean_motion_rev_day": 15.7084835
    },
    {
      "epoch": "2026-04-21T08:49:47.868096Z",
      "apogee_km": 357.6640949054172,
      "perigee_km": 355.00680676576576,
      "latitude_deg": -3.226931133304918e-05,
      "longitude_deg": 164.0786551004883,
      "height_km": 357.20555763431315,
      "semi_major_axis_km": 6734.472450835591,
      "eccentricity": 0.00019729,
      "inclination_deg": 42.9975,
      "raan_deg": 145.973,
      "arg_perigee_deg": 145.9319,
      "mean_anomaly_deg": 214.1675,
      "mean_motion_rev_day": 15.70895845
    },
    {
      "epoch": "2026-04-22T18:24:06.583104Z",
      "apogee_km": 357.73338231793514,
      "perigee_km": 354.76890465717315,
      "latitude_deg": -1.7811289939790363e-05,
      "longitude_deg": 10.690440286925883,
      "height_km": 355.67908070692584,
      "semi_major_axis_km": 6734.388143487554,
      "eccentricity": 0.0002201,
      "inclination_deg": 42.9995,
      "raan_deg": 137.5415,
      "arg_perigee_deg": 283.4624,
      "mean_anomaly_deg": 76.5998,
      "mean_motion_rev_day": 15.70925344
    },
    {
      "epoch": "2026-04-23T02:01:53.997600Z",
      "apogee_km": 357.1402507480052,
      "perigee_km": 355.44600281670864,
      "latitude_deg": -1.6400382634134432e-05,
      "longitude_deg": -105.98556561328479,
      "height_km": 355.89748886757167,
      "semi_major_axis_km": 6734.430126782357,
      "eccentricity": 0.00012579,
      "inclination_deg": 42.9971,
      "raan_deg": 135.6264,
      "arg_perigee_deg": 281.4134,
      "mean_anomaly_deg": 78.6592,
      "mean_motion_rev_day": 15.70910654
    },
    {
      "epoch": "2026-04-24T03:58:25.756032Z",
      "apogee_km": 357.1818297256523,
      "perigee_km": 355.8739578032828,
      "latitude_deg": 3.778898734795625e-05,
      "longitude_deg": -142.69654285609133,
      "height_km": 356.6982431243865,
      "semi_major_axis_km": 6734.664893764467,
      "eccentricity": 9.71e-05,
      "inclination_deg": 43.0004,
      "raan_deg": 129.1131,
      "arg_perigee_deg": 232.4582,
      "mean_anomaly_deg": 127.6198,
      "mean_motion_rev_day": 15.70828513
    },
    {
      "epoch": "2026-04-25T08:58:03.696096Z",
      "apogee_km": 357.88587104958424,
      "perigee_km": 354.7166444054974,
      "latitude_deg": -2.0778293968828934e-05,
      "longitude_deg": 133.920374296221,
      "height_km": 355.73214764092234,
      "semi_major_axis_km": 6734.438257727541,
      "eccentricity": 0.0002353,
      "inclination_deg": 43.0011,
      "raan_deg": 121.8289,
      "arg_perigee_deg": 282.4795,
      "mean_anomaly_deg": 77.5809,
      "mean_motion_rev_day": 15.70907809
    },
    {
      "epoch": "2026-04-26T17:00:50.662944Z",
      "apogee_km": 357.21381457003736,
      "perigee_km": 355.489920109776,
      "latitude_deg": -1.7302061303110457e-05,
      "longitude_deg": 3.8613851121231217,
      "height_km": 356.02101975173196,
      "semi_major_axis_km": 6734.488867339906,
      "eccentricity": 0.00012799,
      "inclination_deg": 43.0004,
      "raan_deg": 113.7817,
      "arg_perigee_deg": 83.2942,
      "mean_anomaly_deg": 276.8071,
      "mean_motion_rev_day": 15.70890101
    },
    {
      "epoch": "2026-04-27T15:54:13.933728Z",
      "apogee_km": 357.00353729665585,
      "perigee_km": 355.82768441080134,
      "latitude_deg": -1.3403636246860334e-05,
      "longitude_deg": 13.8243777983831,
      "height_km": 355.7527866918292,
      "semi_major_axis_km": 6734.552610853729,
      "eccentricity": 8.73e-05,
      "inclination_deg": 43.0016,
      "raan_deg": 108.0317,
      "arg_perigee_deg": 317.6923,
      "mean_anomaly_deg": 42.3877,
      "mean_motion_rev_day": 15.70867798
    },
    {
      "epoch": "2026-04-28T08:41:22.925760Z",
      "apogee_km": 357.5991210267557,
      "perigee_km": 355.1841190636069,
      "latitude_deg": -1.4160942563705241e-05,
      "longitude_deg": 117.13174113532699,
      "height_km": 356.4769480071871,
      "semi_major_axis_km": 6734.528620045181,
      "eccentricity": 0.0001793,
      "inclination_deg": 42.9998,
      "raan_deg": 103.8159,
      "arg_perigee_deg": 254.9922,
      "mean_anomaly_deg": 105.0747,
      "mean_motion_rev_day": 15.70876192
    },
    {
      "epoch": "2026-04-29T07:34:46.276032Z",
      "apogee_km": 358.1242051897425,
      "perigee_km": 354.5281365457622,
      "latitude_deg": -2.407744948448227e-05,
      "longitude_deg": 127.09638681041514,
      "height_km": 356.66564125647125,
      "semi_major_axis_km": 6734.463170867752,
      "eccentricity": 0.00026699,
      "inclination_deg": 43.0014,
      "raan_deg": 98.0679,
      "arg_perigee_deg": 251.6488,
      "mean_anomaly_deg": 108.4089,
      "mean_motion_rev_day": 15.70899092
    },
    {
      "epoch": "2026-04-30T07:59:43.909440Z",
      "apogee_km": 357.32885925321534,
      "perigee_km": 355.30784920141195,
      "latitude_deg": -2.8684120786190144e-05,
      "longitude_deg": 113.72301284628728,
      "height_km": 355.9971665845399,
      "semi_major_axis_km": 6734.455354227313,
      "eccentricity": 0.00015005,
      "inclination_deg": 43.0016,
      "raan_deg": 91.9374,
      "arg_perigee_deg": 275.3321,
      "mean_anomaly_deg": 84.7375,
      "mean_motion_rev_day": 15.70901827
    },
    {
      "epoch": "2026-05-02T05:46:31.091232Z",
      "apogee_km": 359.145360272948,
      "perigee_km": 352.93240960150524,
      "latitude_deg": 1.868150433374037e-05,
      "longitude_deg": 133.64606190122666,
      "height_km": 355.6519578180023,
      "semi_major_axis_km": 6734.175884937226,
      "eccentricity": 0.0004613,
      "inclination_deg": 43.0002,
      "raan_deg": 80.4371,
      "arg_perigee_deg": 272.9778,
      "mean_anomaly_deg": 87.0562,
      "mean_motion_rev_day": 15.70999617
    },
    {
      "epoch": "2026-05-03T21:27:04.339872Z",
      "apogee_km": 357.4177695179278,
      "perigee_km": 354.96243385665275,
      "latitude_deg": -6.495426562152246e-05,
      "longitude_deg": -113.08629907568921,
      "height_km": 356.48824583893,
      "semi_major_axis_km": 6734.3271016872895,
      "eccentricity": 0.0001823,
      "inclination_deg": 43.0004,
      "raan_deg": 70.4728,
      "arg_perigee_deg": 244.6547,
      "mean_anomaly_deg": 115.4131,
      "mean_motion_rev_day": 15.70946703
    },
    {
      "epoch": "2026-05-04T12:42:41.311584Z",
      "apogee_km": 356.9081402965394,
      "perigee_km": 355.9087337536848,
      "latitude_deg": -5.306730914029299e-05,
      "longitude_deg": 13.550545572374773,
      "height_km": 355.89483683322095,
      "semi_major_axis_km": 6734.545437025112,
      "eccentricity": 7.42e-05,
      "inclination_deg": 43.001,
      "raan_deg": 66.6404,
      "arg_perigee_deg": 304.8445,
      "mean_anomaly_deg": 55.2352,
      "mean_motion_rev_day": 15.70870308
    }
  ]
}